start=new Date('2022-11-21T00:00:00.000Z').valueOf();
sats=[{"MEAN_ELEMENT_THEORY":"SGP4","OBJECT_TYPE":"PAYLOAD","CENTER_NAME":"EARTH","EPOCH":"2022-11-20T22:00:00.999936","MEAN_MOTION_DDOT":"0.0000000000000","MEAN_MOTION_DOT":"0.00028036","OBJECT_NAME":"STARLINK-4708","SEMIMAJOR_AXIS":"6917.934","PERIOD":"95.439","COUNTRY_CODE":"US","FILE":"3665715","TIME_SYSTEM":"UTC","REV_AT_EPOCH":"130","ECCENTRICITY":"0.00016460","RA_OF_ASC_NODE":"287.6723","OBJECT_ID":"2022-111D","ARG_OF_PERICENTER":"65.5568","EPHEMERIS_TYPE":"0","APOAPSIS":"540.938","REF_FRAME":"TEME","INCLINATION":"53.2148","BSTAR":"0.00177350000000","ELEMENT_SET_NO":"999","TLE_LINE2":"2 53776  53.2148 287.6723 0001646  65.5568 321.1672 15.08822345  1304","LAUNCH_DATE":"2022-09-11","NORAD_CAT_ID":"53776","RCS_SIZE":"LARGE","MEAN_ANOMALY":"321.1672","SITE":"AFETR","MEAN_MOTION":"15.08822345","DECAY_DATE":null,"TLE_LINE1":"1 53776U 22111D   22324.91667824  .00028036  00000-0  17735-2 0  9995","CLASSIFICATION_TYPE":"U","GP_ID":"218363446","PERIAPSIS":"538.661"},{"BSTAR":"-0.05266000000000","ELEMENT_SET_NO":"999","TLE_LINE2":"2 53777  53.2176 282.7064 0001640  42.9007 335.8425 15.09608367  1306","NORAD_CAT_ID":"53777","LAUNCH_DATE":"2022-09-11","REF_FRAME":"TEME","APOAPSIS":"538.532","INCLINATION":"53.2176","GP_ID":"218363282","TLE_LINE1":"1 53777U 22111E   22324.91667824 -.00799967  00000-0 -52660-1 0  9991","CLASSIFICATION_TYPE":"U","PERIAPSIS":"536.264","RCS_SIZE":"LARGE","MEAN_ANOMALY":"335.8425","DECAY_DATE":null,"SITE":"AFETR","MEAN_MOTION":"15.09608367","CENTER_NAME":"EARTH","PERIOD":"95.389","MEAN_MOTION_DOT":"-0.00799967","MEAN_MOTION_DDOT":"0.0000000000000","EPOCH":"2022-11-20T22:00:00.999936","OBJECT_NAME":"STARLINK-4664","SEMIMAJOR_AXIS":"6915.533","MEAN_ELEMENT_THEORY":"SGP4","OBJECT_TYPE":"PAYLOAD","RA_OF_ASC_NODE":"282.7064","ARG_OF_PERICENTER":"42.9007","EPHEMERIS_TYPE":"0","OBJECT_ID":"2022-111E","FILE":"3665715","COUNTRY_CODE":"US","REV_AT_EPOCH":"130","ECCENTRICITY":"0.00016400","TIME_SYSTEM":"UTC"},{"ELEMENT_SET_NO":"999","TLE_LINE2":"2 53778  53.2167 287.3211 0001802  47.5125 159.4486 15.08822065  1303","BSTAR":"0.00117790000000","LAUNCH_DATE":"2022-09-11","NORAD_CAT_ID":"53778","APOAPSIS":"541.047","REF_FRAME":"TEME","INCLINATION":"53.2167","TLE_LINE1":"1 53778U 22111F   22324.91667824  .00018499  00000-0  11779-2 0  9991","CLASSIFICATION_TYPE":"U","GP_ID":"218364106","PERIAPSIS":"538.554","MEAN_ANOMALY":"159.4486","RCS_SIZE":"LARGE","MEAN_MOTION":"15.08822065","SITE":"AFETR","DECAY_DATE":null,"CENTER_NAME":"EARTH","OBJECT_NAME":"STARLINK-4709","SEMIMAJOR_AXIS":"6917.935","EPOCH":"2022-11-20T22:00:00.999936","MEAN_MOTION_DDOT":"0.0000000000000","MEAN_MOTION_DOT":"0.00018499","PERIOD":"95.439","MEAN_ELEMENT_THEORY":"SGP4","OBJECT_TYPE":"PAYLOAD","RA_OF_ASC_NODE":"287.3211","OBJECT_ID":"2022-111F","ARG_OF_PERICENTER":"47.5125","EPHEMERIS_TYPE":"0","COUNTRY_CODE":"US","FILE":"3665715","TIME_SYSTEM":"UTC","REV_AT_EPOCH":"130","ECCENTRICITY":"0.00018020"},{"COUNTRY_CODE":"US","FILE":"3665715","TIME_SYSTEM":"UTC","REV_AT_EPOCH":"130","ECCENTRICITY":"0.00019610","RA_OF_ASC_NODE":"282.6678","OBJECT_ID":"2022-111G","ARG_OF_PERICENTER":"40.0956","EPHEMERIS_TYPE":"0","MEAN_ELEMENT_THEORY":"SGP4","OBJECT_TYPE":"PAYLOAD","CENTER_NAME":"EARTH","EPOCH":"2022-11-20T22:00:00.999936","MEAN_MOTION_DDOT":"0.0000000000000","MEAN_MOTION_DOT":"-0.01050852","OBJECT_NAME":"STARLINK-4706","SEMIMAJOR_AXIS":"6914.436","PERIOD":"95.366","RCS_SIZE":"LARGE","MEAN_ANOMALY":"358.2356","SITE":"AFETR","MEAN_MOTION":"15.09967543","DECAY_DATE":null,"CLASSIFICATION_TYPE":"U","TLE_LINE1":"1 53779U 22111G   22324.91667824 -.01050852  00000-0 -69040-1 0  9997","GP_ID":"218363942","PERIAPSIS":"534.945","APOAPSIS":"537.657","REF_FRAME":"TEME","INCLINATION":"53.2175","BSTAR":"-0.06904000000000","ELEMENT_SET_NO":"999","TLE_LINE2":"2 53779  53.2175 282.6678 0001961  40.0956 358.2356 15.09967543  1301","LAUNCH_DATE":"2022-09-11","NORAD_CAT_ID":"53779"},{"COUNTRY_CODE":"US","FILE":"3665715","TIME_SYSTEM":"UTC","REV_AT_EPOCH":"130","ECCENTRICITY":"0.00015570","RA_OF_ASC_NODE":"282.7449","OBJECT_ID":"2022-111H","EPHEMERIS_TYPE":"0","ARG_OF_PERICENTER":"41.0838","MEAN_ELEMENT_THEORY":"SGP4","OBJECT_TYPE":"PAYLOAD","CENTER_NAME":"EARTH","MEAN_MOTION_DDOT":"0.0000000000000","MEAN_MOTION_DOT":"-0.00574798","EPOCH":"2022-11-20T22:00:00.999936","SEMIMAJOR_AXIS":"6916.419","OBJECT_NAME":"STARLINK-4678","PERIOD":"95.407","RCS_SIZE":"LARGE","MEAN_ANOMALY":"317.9354","SITE":"AFETR","MEAN_MOTION":"15.09318171","DECAY_DATE":null,"TLE_LINE1":"1 53780U 22111H   22324.91667824 -.00574798  00000-0 -38128-1 0  9991","CLASSIFICATION_TYPE":"U","GP_ID":"218363117","PERIAPSIS":"537.207","APOAPSIS":"539.361","REF_FRAME":"TEME","INCLINATION":"53.2177","BSTAR":"-0.03812800000000","ELEMENT_SET_NO":"999","TLE_LINE2":"2 53780  53.2177 282.7449 0001557  41.0838 317.9354 15.09318171  1300","LAUNCH_DATE":"2022-09-11","NORAD_CAT_ID":"53780"},{"COUNTRY_CODE":"US","FILE":"3665715","TIME_SYSTEM":"UTC","REV_AT_EPOCH":"130","ECCENTRICITY":"0.00019300","RA_OF_ASC_NODE":"282.5531","OBJECT_ID":"2022-111J","EPHEMERIS_TYPE":"0","ARG_OF_PERICENTER":"35.8865","MEAN_ELEMENT_THEORY":"SGP4","OBJECT_TYPE":"PAYLOAD","CENTER_NAME":"EARTH","SEMIMAJOR_AXIS":"6911.744","OBJECT_NAME":"STARLINK-4462","MEAN_MOTION_DDOT":"0.0000000000000","MEAN_MOTION_DOT":"-0.01144153","EPOCH":"2022-11-20T22:00:00.999936","PERIOD":"95.311","MEAN_ANOMALY":"60.5431","RCS_SIZE":"LARGE","MEAN_MOTION":"15.10849918","SITE":"AFETR","DECAY_DATE":null,"TLE_LINE1":"1 53781U 22111J   22324.91667824 -.01144153  00000-0 -73854-1 0  9996","CLASSIFICATION_TYPE":"U","GP_ID":"218363611","PERIAPSIS":"532.275","APOAPSIS":"534.943","REF_FRAME":"TEME","INCLINATION":"53.2175","TLE_LINE2":"2 53781  53.2175 282.5531 0001930  35.8865  60.5431 15.10849918  1302","ELEMENT_SET_NO":"999","BSTAR":"-0.07385400000000","LAUNCH_DATE":"2022-09-11","NORAD_CAT_ID":"53781"},{"PERIOD":"95.346","OBJECT_NAME":"STARLINK-4679","SEMIMAJOR_AXIS":"6913.449","EPOCH":"2022-11-20T22:00:00.999936","MEAN_MOTION_DDOT":"0.0000000000000","MEAN_MOTION_DOT":"-0.01149878","CENTER_NAME":"EARTH","OBJECT_TYPE":"PAYLOAD","MEAN_ELEMENT_THEORY":"SGP4","EPHEMERIS_TYPE":"0","ARG_OF_PERICENTER":"34.1871","OBJECT_ID":"2022-111K","RA_OF_ASC_NODE":"282.6291","REV_AT_EPOCH":"130","ECCENTRICITY":"0.00019960","TIME_SYSTEM":"UTC","FILE":"3665715","COUNTRY_CODE":"US","NORAD_CAT_ID":"53782","LAUNCH_DATE":"2022-09-11","ELEMENT_SET_NO":"999","TLE_LINE2":"2 53782  53.2175 282.6291 0001996  34.1871  23.6215 15.10290910  1300","BSTAR":"-0.07541700000000","INCLINATION":"53.2175","REF_FRAME":"TEME","APOAPSIS":"536.694","PERIAPSIS":"533.934","GP_ID":"218363777","TLE_LINE1":"1 53782U 22111K   22324.91667824 -.01149878  00000-0 -75417-1 0  9993","CLASSIFICATION_TYPE":"U","DECAY_DATE":null,"MEAN_MOTION":"15.10290910","SITE":"AFETR","MEAN_ANOMALY":"23.6215","RCS_SIZE":"LARGE"},{"OBJECT_ID":"2022-111L","EPHEMERIS_TYPE":"0","ARG_OF_PERICENTER":"39.0966","RA_OF_ASC_NODE":"282.4780","TIME_SYSTEM":"UTC","ECCENTRICITY":"0.00019610","REV_AT_EPOCH":"130","COUNTRY_CODE":"US","FILE":"3665715","OBJECT_NAME":"STARLINK-4536","SEMIMAJOR_AXIS":"6910.037","MEAN_MOTION_DDOT":"0.0000000000000","MEAN_MOTION_DOT":"-0.01145120","EPOCH":"2022-11-20T22:00:00.999936","PERIOD":"95.275","CENTER_NAME":"EARTH","OBJECT_TYPE":"PAYLOAD","MEAN_ELEMENT_THEORY":"SGP4","PERIAPSIS":"530.547","TLE_LINE1":"1 53783U 22111L   22324.91667824 -.01145120  00000-0 -72776-1 0  9995","CLASSIFICATION_TYPE":"U","GP_ID":"218364271","MEAN_MOTION":"15.11409791","SITE":"AFETR","DECAY_DATE":null,"MEAN_ANOMALY":"95.4957","RCS_SIZE":"LARGE","LAUNCH_DATE":"2022-09-11","NORAD_CAT_ID":"53783","TLE_LINE2":"2 53783  53.2175 282.4780 0001961  39.0966  95.4957 15.11409791  1303","ELEMENT_SET_NO":"999","BSTAR":"-0.07277600000000","INCLINATION":"53.2175","APOAPSIS":"533.257","REF_FRAME":"TEME"},{"TLE_LINE1":"1 53784U 22111M   22324.91667824 -.01144897  00000-0 -74486-1 0  9996","CLASSIFICATION_TYPE":"U","GP_ID":"218363447","PERIAPSIS":"533.126","MEAN_ANOMALY":"42.6563","RCS_SIZE":"LARGE","MEAN_MOTION":"15.10568965","SITE":"AFETR","DECAY_DATE":null,"ELEMENT_SET_NO":"999","TLE_LINE2":"2 53784  53.2175 282.5909 0001938  34.5228  42.6563 15.10568965  1308","BSTAR":"-0.07448600000000","LAUNCH_DATE":"2022-09-11","NORAD_CAT_ID":"53784","APOAPSIS":"535.805","REF_FRAME":"TEME","INCLINATION":"53.2175","RA_OF_ASC_NODE":"282.5909","OBJECT_ID":"2022-111M","ARG_OF_PERICENTER":"34.5228","EPHEMERIS_TYPE":"0","COUNTRY_CODE":"US","FILE":"3665715","TIME_SYSTEM":"UTC","REV_AT_EPOCH":"130","ECCENTRICITY":"0.00019380","CENTER_NAME":"EARTH","SEMIMAJOR_AXIS":"6912.601","OBJECT_NAME":"STARLINK-4687","MEAN_MOTION_DOT":"-0.01144897","MEAN_MOTION_DDOT":"0.0000000000000","EPOCH":"2022-11-20T22:00:00.999936","PERIOD":"95.328","MEAN_ELEMENT_THEORY":"SGP4","OBJECT_TYPE":"PAYLOAD"},{"INCLINATION":"53.2161","APOAPSIS":"416.566","REF_FRAME":"TEME","LAUNCH_DATE":"2022-09-11","NORAD_CAT_ID":"53786","BSTAR":"-0.00072161000000","ELEMENT_SET_NO":"999","TLE_LINE2":"2 53786  53.2161 279.8012 0001533  57.1443 348.7517 15.50411967  1302","SITE":"AFETR","MEAN_MOTION":"15.50411967","DECAY_DATE":null,"RCS_SIZE":"LARGE","MEAN_ANOMALY":"348.7517","PERIAPSIS":"414.483","CLASSIFICATION_TYPE":"U","TLE_LINE1":"1 53786U 22111P   22324.91667824 -.00041959  00000-0 -72161-3 0  9992","GP_ID":"218363283","OBJECT_TYPE":"PAYLOAD","MEAN_ELEMENT_THEORY":"SGP4","MEAN_MOTION_DDOT":"0.0000000000000","EPOCH":"2022-11-20T22:00:00.999936","MEAN_MOTION_DOT":"-0.00041959","OBJECT_NAME":"STARLINK-4631","SEMIMAJOR_AXIS":"6793.659","PERIOD":"92.879","CENTER_NAME":"EARTH","TIME_SYSTEM":"UTC","ECCENTRICITY":"0.00015330","REV_AT_EPOCH":"130","COUNTRY_CODE":"US","FILE":"3665715","OBJECT_ID":"2022-111P","EPHEMERIS_TYPE":"0","ARG_OF_PERICENTER":"57.1443","RA_OF_ASC_NODE":"279.8012"}];
